FLOCK 4G-8              
1 62613U 25009E   26068.72381419  .00013559  00000+0  50438-3 0  9996
2 62613  97.4045 151.2834 0003050 315.2538  44.8455 15.27623414 63721
STARLINK-36486          
1 67335U 26003B   26068.47355285  .00021593  00000+0  79222-3 0  9990
2 67335  43.0011 228.0389 0001317 268.1166  91.9535 15.27566267  8792
